{"type": "FeatureCollection", "features": [{"type": "Feature", "properties": {"norad_id": 24946, "name": "IRIDIUM 33", "group": "iridium-33-debris", "lat": 13.118340905458416, "lon": -117.45155122156113, "alt_km": 770.1686242354035, "timestamp": "2025-12-24T05:51:19.993812+00:00", "meta": {"OBJECT_NAME": "IRIDIUM 33", "OBJECT_ID": "1997-051C", "EPOCH": "2025-12-23T15:41:35.917152", "MEAN_MOTION": 14.35044477, "ECCENTRICITY": 0.00083283, "INCLINATION": 86.3859, "RA_OF_ASC_NODE": 63.6401, "ARG_OF_PERICENTER": 164.7579, "MEAN_ANOMALY": 195.387, "EPHEMERIS_TYPE": 0, "CLASSIFICATION_TYPE": "U", "NORAD_CAT_ID": 24946, "ELEMENT_SET_NO": 999, "REV_AT_EPOCH": 47991, "BSTAR": 0.0001025615, "MEAN_MOTION_DOT": 3.12e-06, "MEAN_MOTION_DDOT": 0}, "tle": {"line1": "1 24946U 97051C   25357.65388793  .00000312  00000+0  10256-3 0  9990", "line2": "2 24946  86.3859  63.6401 0008328 164.7579 195.3870 14.35044477479918"}}, "geometry": {"type": "Point", "coordinates": [-117.45155122156113, 13.118340905458416]}}, {"type": "Feature", "properties": {"norad_id": 33773, "name": "IRIDIUM 33 DEB", "group": "iridium-33-debris", "lat": 75.56215499316467, "lon": -138.43956646896066, "alt_km": 731.3037776588199, "timestamp": "2025-12-24T05:51:19.993856+00:00", "meta": {"OBJECT_NAME": "IRIDIUM 33 DEB", "OBJECT_ID": "1997-051L", "EPOCH": "2025-12-23T06:04:51.359808", "MEAN_MOTION": 14.43278189, "ECCENTRICITY": 0.00132106, "INCLINATION": 86.4, "RA_OF_ASC_NODE": 56.134, "ARG_OF_PERICENTER": 116.1124, "MEAN_ANOMALY": 244.1438, "EPHEMERIS_TYPE": 0, "CLASSIFICATION_TYPE": "U", "NORAD_CAT_ID": 33773, "ELEMENT_SET_NO": 999, "REV_AT_EPOCH": 88499, "BSTAR": 0.00027605161, "MEAN_MOTION_DOT": 9.5e-06, "MEAN_MOTION_DDOT": 0}, "tle": {"line1": "1 33773U 97051L   25357.25337222  .00000950  00000+0  27605-3 0  9999", "line2": "2 33773  86.4000  56.1340 0013210 116.1124 244.1438 14.43278189884996"}}, "geometry": {"type": "Point", "coordinates": [-138.43956646896066, 75.56215499316467]}}, {"type": "Feature", "properties": {"norad_id": 33775, "name": "IRIDIUM 33 DEB", "group": "iridium-33-debris", "lat": 66.16834137136769, "lon": -143.63861831829564, "alt_km": 736.4268941959663, "timestamp": "2025-12-24T05:51:19.993873+00:00", "meta": {"OBJECT_NAME": "IRIDIUM 33 DEB", "OBJECT_ID": "1997-051N", "EPOCH": "2025-12-23T13:17:41.922816", "MEAN_MOTION": 14.41490246, "ECCENTRICITY": 0.00152222, "INCLINATION": 86.3625, "RA_OF_ASC_NODE": 44.9362, "ARG_OF_PERICENTER": 122.4462, "MEAN_ANOMALY": 12.5884, "EPHEMERIS_TYPE": 0, "CLASSIFICATION_TYPE": "U", "NORAD_CAT_ID": 33775, "ELEMENT_SET_NO": 999, "REV_AT_EPOCH": 88296, "BSTAR": 0.00028606428, "MEAN_MOTION_DOT": 9.49e-06, "MEAN_MOTION_DDOT": 0}, "tle": {"line1": "1 33775U 97051N   25357.55395744  .00000949  00000+0  28606-3 0  9997", "line2": "2 33775  86.3625  44.9362 0015222 122.4462  12.5884 14.41490246882964"}}, "geometry": {"type": "Point", "coordinates": [-143.63861831829564, 66.16834137136769]}}, {"type": "Feature", "properties": {"norad_id": 33776, "name": "IRIDIUM 33 DEB", "group": "iridium-33-debris", "lat": -29.608855117013757, "lon": -102.0068850834927, "alt_km": 763.9968557437678, "timestamp": "2025-12-24T05:51:19.993887+00:00", "meta": {"OBJECT_NAME": "IRIDIUM 33 DEB", "OBJECT_ID": "1997-051P", "EPOCH": "2025-12-23T23:00:23.365728", "MEAN_MOTION": 14.38253879, "ECCENTRICITY": 0.00156163, "INCLINATION": 86.403, "RA_OF_ASC_NODE": 76.0644, "ARG_OF_PERICENTER": 154.6718, "MEAN_ANOMALY": 18.0774, "EPHEMERIS_TYPE": 0, "CLASSIFICATION_TYPE": "U", "NORAD_CAT_ID": 33776, "ELEMENT_SET_NO": 999, "REV_AT_EPOCH": 88243, "BSTAR": 0.00026165464, "MEAN_MOTION_DOT": 8.16e-06, "MEAN_MOTION_DDOT": 0}, "tle": {"line1": "1 33776U 97051P   25357.95860377  .00000816  00000+0  26165-3 0  9992", "line2": "2 33776  86.4030  76.0644 0015616 154.6718  18.0774 14.38253879882439"}}, "geometry": {"type": "Point", "coordinates": [-102.0068850834927, -29.608855117013757]}}, {"type": "Feature", "properties": {"norad_id": 33777, "name": "IRIDIUM 33 DEB", "group": "iridium-33-debris", "lat": -3.072779359754827, "lon": 30.003340571761367, "alt_km": 714.5893683927725, "timestamp": "2025-12-24T05:51:19.993900+00:00", "meta": {"OBJECT_NAME": "IRIDIUM 33 DEB", "OBJECT_ID": "1997-051Q", "EPOCH": "2025-12-23T11:43:19.900128", "MEAN_MOTION": 14.55683855, "ECCENTRICITY": 0.00061402, "INCLINATION": 86.3772, "RA_OF_ASC_NODE": 30.5269, "ARG_OF_PERICENTER": 203.1563, "MEAN_ANOMALY": 156.9369, "EPHEMERIS_TYPE": 0, "CLASSIFICATION_TYPE": "U", "NORAD_CAT_ID": 33777, "ELEMENT_SET_NO": 999, "REV_AT_EPOCH": 88690, "BSTAR": 0.00078836725, "MEAN_MOTION_DOT": 3.465e-05, "MEAN_MOTION_DDOT": 0}, "tle": {"line1": "1 33777U 97051Q   25357.48842477  .00003465  00000+0  78837-3 0  9998", "line2": "2 33777  86.3772  30.5269 0006140 203.1563 156.9369 14.55683855886908"}}, "geometry": {"type": "Point", "coordinates": [30.003340571761367, -3.072779359754827]}}, {"type": "Feature", "properties": {"norad_id": 33850, "name": "IRIDIUM 33 DEB", "group": "iridium-33-debris", "lat": 57.23437043257877, "lon": -160.47423780489333, "alt_km": 736.5109140613013, "timestamp": "2025-12-24T05:51:19.993912+00:00", "meta": {"OBJECT_NAME": "IRIDIUM 33 DEB", "OBJECT_ID": "1997-051T", "EPOCH": "2025-12-23T19:53:00.127680", "MEAN_MOTION": 14.42172419, "ECCENTRICITY": 0.00132244, "INCLINATION": 86.3407, "RA_OF_ASC_NODE": 25.4109, "ARG_OF_PERICENTER": 128.0286, "MEAN_ANOMALY": 358.6367, "EPHEMERIS_TYPE": 0, "CLASSIFICATION_TYPE": "U", "NORAD_CAT_ID": 33850, "ELEMENT_SET_NO": 999, "REV_AT_EPOCH": 88312, "BSTAR": 0.00036619664, "MEAN_MOTION_DOT": 1.226e-05, "MEAN_MOTION_DDOT": 0}, "tle": {"line1": "1 33850U 97051T   25357.82847370  .00001226  00000+0  36620-3 0  9992", "line2": "2 33850  86.3407  25.4109 0013224 128.0286 358.6367 14.42172419883124"}}, "geometry": {"type": "Point", "coordinates": [-160.47423780489333, 57.23437043257877]}}, {"type": "Feature", "properties": {"norad_id": 33853, "name": "IRIDIUM 33 DEB", "group": "iridium-33-debris", "lat": 16.617832982076283, "lon": 163.56940610450332, "alt_km": 775.8871519810882, "timestamp": "2025-12-24T05:51:19.993924+00:00", "meta": {"OBJECT_NAME": "IRIDIUM 33 DEB", "OBJECT_ID": "1997-051W", "EPOCH": "2025-12-23T22:20:36.162240", "MEAN_MOTION": 13.99115902, "ECCENTRICITY": 0.02075947, "INCLINATION": 86.0002, "RA_OF_ASC_NODE": 344.9031, "ARG_OF_PERICENTER": 201.3048, "MEAN_ANOMALY": 187.7421, "EPHEMERIS_TYPE": 0, "CLASSIFICATION_TYPE": "U", "NORAD_CAT_ID": 33853, "ELEMENT_SET_NO": 999, "REV_AT_EPOCH": 85502, "BSTAR": 0.0011647054, "MEAN_MOTION_DOT": 2.046e-05, "MEAN_MOTION_DDOT": 0}, "tle": {"line1": "1 33853U 97051W   25357.93097410  .00002046  00000+0  11647-2 0  9991", "line2": "2 33853  86.0002 344.9031 0207594 201.3048 187.7421 13.99115902855029"}}, "geometry": {"type": "Point", "coordinates": [163.56940610450332, 16.617832982076283]}}, {"type": "Feature", "properties": {"norad_id": 33860, "name": "IRIDIUM 33 DEB", "group": "iridium-33-debris", "lat": 21.542607644816602, "lon": 23.57604599630496, "alt_km": 667.3955513109804, "timestamp": "2025-12-24T05:51:19.993937+00:00", "meta": {"OBJECT_NAME": "IRIDIUM 33 DEB", "OBJECT_ID": "1997-051AD", "EPOCH": "2025-12-23T12:19:45.141888", "MEAN_MOTION": 14.67490228, "ECCENTRICITY": 0.00061594, "INCLINATION": 86.3821, "RA_OF_ASC_NODE": 22.4681, "ARG_OF_PERICENTER": 315.746, "MEAN_ANOMALY": 170.4243, "EPHEMERIS_TYPE": 0, "CLASSIFICATION_TYPE": "U", "NORAD_CAT_ID": 33860, "ELEMENT_SET_NO": 999, "REV_AT_EPOCH": 88880, "BSTAR": 0.0011382297, "MEAN_MOTION_DOT": 6.471e-05, "MEAN_MOTION_DDOT": 0}, "tle": {"line1": "1 33860U 97051AD  25357.51371692  .00006471  00000+0  11382-2 0  9992", "line2": "2 33860  86.3821  22.4681 0006159 315.7460 170.4243 14.67490228888806"}}, "geometry": {"type": "Point", "coordinates": [23.57604599630496, 21.542607644816602]}}, {"type": "Feature", "properties": {"norad_id": 33862, "name": "IRIDIUM 33 DEB", "group": "iridium-33-debris", "lat": 34.329467428834626, "lon": -150.00256905282336, "alt_km": 675.5382327920734, "timestamp": "2025-12-24T05:51:19.993948+00:00", "meta": {"OBJECT_NAME": "IRIDIUM 33 DEB", "OBJECT_ID": "1997-051AF", "EPOCH": "2025-12-23T01:32:54.489984", "MEAN_MOTION": 14.6963106, "ECCENTRICITY": 0.0052374, "INCLINATION": 86.4076, "RA_OF_ASC_NODE": 32.9766, "ARG_OF_PERICENTER": 34.4882, "MEAN_ANOMALY": 354.3477, "EPHEMERIS_TYPE": 0, "CLASSIFICATION_TYPE": "U", "NORAD_CAT_ID": 33862, "ELEMENT_SET_NO": 999, "REV_AT_EPOCH": 88975, "BSTAR": 0.0015854731, "MEAN_MOTION_DOT": 9.654e-05, "MEAN_MOTION_DDOT": 0}, "tle": {"line1": "1 33862U 97051AF  25357.06451956  .00009654  00000+0  15855-2 0  9991", "line2": "2 33862  86.4076  32.9766 0052374  34.4882 354.3477 14.69631060889754"}}, "geometry": {"type": "Point", "coordinates": [-150.00256905282336, 34.329467428834626]}}, {"type": "Feature", "properties": {"norad_id": 33866, "name": "IRIDIUM 33 DEB", "group": "iridium-33-debris", "lat": -0.6326875663551429, "lon": -91.79037866269614, "alt_km": 763.1960681817418, "timestamp": "2025-12-24T05:51:19.993959+00:00", "meta": {"OBJECT_NAME": "IRIDIUM 33 DEB", "OBJECT_ID": "1997-051AK", "EPOCH": "2025-12-23T14:10:53.283072", "MEAN_MOTION": 14.25306443, "ECCENTRICITY": 0.01151166, "INCLINATION": 86.2999, "RA_OF_ASC_NODE": 88.445, "ARG_OF_PERICENTER": 127.0066, "MEAN_ANOMALY": 303.4648, "EPHEMERIS_TYPE": 0, "CLASSIFICATION_TYPE": "U", "NORAD_CAT_ID": 33866, "ELEMENT_SET_NO": 999, "REV_AT_EPOCH": 86965, "BSTAR": 0.00052921027, "MEAN_MOTION_DOT": 1.355e-05, "MEAN_MOTION_DDOT": 0}, "tle": {"line1": "1 33866U 97051AK  25357.59089448  .00001355  00000+0  52921-3 0  9992", "line2": "2 33866  86.2999  88.4450 0115116 127.0066 303.4648 14.25306443869651"}}, "geometry": {"type": "Point", "coordinates": [-91.79037866269614, -0.6326875663551429]}}]}